FENGYUN 1C DEB          
1 30202U 99025VK  17345.83415669  .00000903  00000-0  39234-3 0  9990
2 30202  98.8173  28.9218 0059745   0.3484 359.7727 14.25703329564645
